{"type": "FeatureCollection", "features": [ {"type": "Feature", "properties": {"norad_id": 40118, "name": "GAOFEN-2", "group": "resource", "lat": 56.370017358870896, "lon": -117.26448358498584, "alt_km": 616.3736435581486, "timestamp": "2025-12-17T07:00:46.548715+00:00", "meta": {"OBJECT_NAME": "GAOFEN-2", "OBJECT_ID": "2014-049A", "EPOCH": "2025-12-16T23:58:24.748320", "MEAN_MOTION": 14.8061738, "ECCENTRICITY": 0.00086761, "INCLINATION": 98.0385, "RA_OF_ASC_NODE": 50.1749, "ARG_OF_PERICENTER": 101.0746, "MEAN_ANOMALY": 259.1442, "EPHEMERIS_TYPE": 0, "CLASSIFICATION_TYPE": "U", "NORAD_CAT_ID": 40118, "ELEMENT_SET_NO": 999, "REV_AT_EPOCH": 61227, "BSTAR": 0.00011149624, "MEAN_MOTION_DOT": 8.03e-06, "MEAN_MOTION_DDOT": 0}, "tle": {"line1": "1 40118U 14049A   25350.99889755  .00000803  00000+0  11150-3 0  9998", "line2": "2 40118  98.0385  50.1749 0008676 101.0746 259.1442 14.80617380612274"}}, "geometry": {"type": "Point", "coordinates": [-117.26448358498584, 56.370017358870896]}}, {"type": "Feature", "properties": {"norad_id": 40143, "name": "YAOGAN-21", "group": "resource", "lat": 69.75028516368715, "lon": 14.439618573529941, "alt_km": 483.2514349306275, "timestamp": "2025-12-17T07:00:46.548726+00:00", "meta": {"OBJECT_NAME": "YAOGAN-21", "OBJECT_ID": "2014-053A", "EPOCH": "2025-12-17T00:23:54.693600", "MEAN_MOTION": 15.23721081, "ECCENTRICITY": 0.00094349, "INCLINATION": 97.1754, "RA_OF_ASC_NODE": 34.1438, "ARG_OF_PERICENTER": 27.6414, "MEAN_ANOMALY": 332.5324, "EPHEMERIS_TYPE": 0, "CLASSIFICATION_TYPE": "U", "NORAD_CAT_ID": 40143, "ELEMENT_SET_NO": 999, "REV_AT_EPOCH": 62719, "BSTAR": 0.00015900485, "MEAN_MOTION_DOT": 3.756e-05, "MEAN_MOTION_DDOT": 0}, "tle": {"line1": "1 40143U 14053A   25351.01660525  .00003756  00000+0  15900-3 0  9994", "line2": "2 40143  97.1754  34.1438 0009434  27.6414 332.5324 15.23721081627191"}}, "geometry": {"type": "Point", "coordinates": [14.439618573529941, 69.75028516368715]}}, {"type": "Feature", "properties": {"norad_id": 40275, "name": "YAOGAN-22", "group": "resource", "lat": 75.41827385914468, "lon": 1.6376445788165663, "alt_km": 1197.9437670123543, "timestamp": "2025-12-17T07:00:46.548736+00:00", "meta": {"OBJECT_NAME": "YAOGAN-22", "OBJECT_ID": "2014-063A", "EPOCH": "2025-12-16T23:12:19.935360", "MEAN_MOTION": 13.15522819, "ECCENTRICITY": 0.00059831, "INCLINATION": 100.7423, "RA_OF_ASC_NODE": 134.4461, "ARG_OF_PERICENTER": 237.8836, "MEAN_ANOMALY": 122.1695, "EPHEMERIS_TYPE": 0, "CLASSIFICATION_TYPE": "U", "NORAD_CAT_ID": 40275, "ELEMENT_SET_NO": 999, "REV_AT_EPOCH": 53585, "BSTAR": 6.1520931e-05, "MEAN_MOTION_DOT": -2.3e-07, "MEAN_MOTION_DDOT": 0}, "tle": {"line1": "1 40275U 14063A   25350.96689740 -.00000023  00000+0  61521-4 0  9990", "line2": "2 40275 100.7423 134.4461 0005983 237.8836 122.1695 13.15522819535851"}}, "geometry": {"type": "Point", "coordinates": [1.6376445788165663, 75.41827385914468]}}, {"type": "Feature", "properties": {"norad_id": 40298, "name": "ASNARO", "group": "resource", "lat": 50.18370881931138, "lon": 58.200879514677226, "alt_km": 500.55652382350036, "timestamp": "2025-12-17T07:00:46.548746+00:00", "meta": {"OBJECT_NAME": "ASNARO", "OBJECT_ID": "2014-070A", "EPOCH": "2025-12-17T00:28:07.683168", "MEAN_MOTION": 15.19585159, "ECCENTRICITY": 0.00055841, "INCLINATION": 97.3653, "RA_OF_ASC_NODE": 66.8611, "ARG_OF_PERICENTER": 110.7499, "MEAN_ANOMALY": 249.4335, "EPHEMERIS_TYPE": 0, "CLASSIFICATION_TYPE": "U", "NORAD_CAT_ID": 40298, "ELEMENT_SET_NO": 999, "REV_AT_EPOCH": 61634, "BSTAR": 0.00039223147, "MEAN_MOTION_DOT": 8.286e-05, "MEAN_MOTION_DDOT": 0}, "tle": {"line1": "1 40298U 14070A   25351.01953337  .00008286  00000+0  39223-3 0  9997", "line2": "2 40298  97.3653  66.8611 0005584 110.7499 249.4335 15.19585159616348"}}, "geometry": {"type": "Point", "coordinates": [58.200879514677226, 50.18370881931138]}}, {"type": "Feature", "properties": {"norad_id": 40310, "name": "YAOGAN-24", "group": "resource", "lat": 33.250658305822256, "lon": 117.03662102552565, "alt_km": 639.4043215276015, "timestamp": "2025-12-17T07:00:46.548756+00:00", "meta": {"OBJECT_NAME": "YAOGAN-24", "OBJECT_ID": "2014-072A", "EPOCH": "2025-12-16T22:43:37.108128", "MEAN_MOTION": 14.76187822, "ECCENTRICITY": 0.0014932, "INCLINATION": 98.1215, "RA_OF_ASC_NODE": 122.0619, "ARG_OF_PERICENTER": 125.2329, "MEAN_ANOMALY": 235.028, "EPHEMERIS_TYPE": 0, "CLASSIFICATION_TYPE": "U", "NORAD_CAT_ID": 40310, "ELEMENT_SET_NO": 999, "REV_AT_EPOCH": 59683, "BSTAR": 0.00017011248, "MEAN_MOTION_DOT": 1.125e-05, "MEAN_MOTION_DDOT": 0}, "tle": {"line1": "1 40310U 14072A   25350.94695727  .00001125  00000+0  17011-3 0  9997", "line2": "2 40310  98.1215 122.0619 0014932 125.2329 235.0280 14.76187822596837"}}, "geometry": {"type": "Point", "coordinates": [117.03662102552565, 33.250658305822256]}}, {"type": "Feature", "properties": {"norad_id": 40336, "name": "CBERS 4", "group": "resource", "lat": -9.005002302598065, "lon": -132.17704420255097, "alt_km": 777.2197207184172, "timestamp": "2025-12-17T07:00:46.548767+00:00", "meta": {"OBJECT_NAME": "CBERS 4", "OBJECT_ID": "2014-079A", "EPOCH": "2025-12-16T23:26:38.974272", "MEAN_MOTION": 14.35519317, "ECCENTRICITY": 0.00017343, "INCLINATION": 98.3309, "RA_OF_ASC_NODE": 48.849, "ARG_OF_PERICENTER": 107.5336, "MEAN_ANOMALY": 252.604, "EPHEMERIS_TYPE": 0, "CLASSIFICATION_TYPE": "U", "NORAD_CAT_ID": 40336, "ELEMENT_SET_NO": 999, "REV_AT_EPOCH": 57781, "BSTAR": 5.7795626e-05, "MEAN_MOTION_DOT": 1.24e-06, "MEAN_MOTION_DDOT": 0}, "tle": {"line1": "1 40336U 14079A   25350.97683998  .00000124  00000+0  57796-4 0  9995", "line2": "2 40336  98.3309  48.8490 0001734 107.5336 252.6040 14.35519317577819"}}, "geometry": {"type": "Point", "coordinates": [-132.17704420255097, -9.005002302598065]}}, {"type": "Feature", "properties": {"norad_id": 40362, "name": "YAOGAN-26", "group": "resource", "lat": 41.88636602954798, "lon": -14.58013945887722, "alt_km": 440.95782914532447, "timestamp": "2025-12-17T07:00:46.548777+00:00", "meta": {"OBJECT_NAME": "YAOGAN-26", "OBJECT_ID": "2014-088A", "EPOCH": "2025-12-16T23:01:48.040320", "MEAN_MOTION": 15.39450041, "ECCENTRICITY": 0.00056343, "INCLINATION": 97.0635, "RA_OF_ASC_NODE": 351.4837, "ARG_OF_PERICENTER": 17.0516, "MEAN_ANOMALY": 343.0919, "EPHEMERIS_TYPE": 0, "CLASSIFICATION_TYPE": "U", "NORAD_CAT_ID": 40362, "ELEMENT_SET_NO": 999, "REV_AT_EPOCH": 60959, "BSTAR": 0.00039742479, "MEAN_MOTION_DOT": 0.00015515, "MEAN_MOTION_DDOT": 0}, "tle": {"line1": "1 40362U 14088A   25350.95958380  .00015515  00000+0  39742-3 0  9992", "line2": "2 40362  97.0635 351.4837 0005634  17.0516 343.0919 15.39450041609596"}}, "geometry": {"type": "Point", "coordinates": [-14.58013945887722, 41.88636602954798]}}, {"type": "Feature", "properties": {"norad_id": 40376, "name": "SMAP", "group": "resource", "lat": 52.004721717986385, "lon": -173.50653614913907, "alt_km": 676.8559939637271, "timestamp": "2025-12-17T07:00:46.548788+00:00", "meta": {"OBJECT_NAME": "SMAP", "OBJECT_ID": "2015-003A", "EPOCH": "2025-12-16T23:52:10.732224", "MEAN_MOTION": 14.63350573, "ECCENTRICITY": 0.00012117, "INCLINATION": 98.1289, "RA_OF_ASC_NODE": 355.6571, "ARG_OF_PERICENTER": 90.922, "MEAN_ANOMALY": 269.2121, "EPHEMERIS_TYPE": 0, "CLASSIFICATION_TYPE": "U", "NORAD_CAT_ID": 40376, "ELEMENT_SET_NO": 999, "REV_AT_EPOCH": 58097, "BSTAR": 0.00010711685, "MEAN_MOTION_DOT": 5.06e-06, "MEAN_MOTION_DDOT": 0}, "tle": {"line1": "1 40376U 15003A   25350.99456866  .00000506  00000+0  10712-3 0  9991", "line2": "2 40376  98.1289 355.6571 0001211  90.9220 269.2121 14.63350573580977"}}, "geometry": {"type": "Point", "coordinates": [-173.50653614913907, 52.004721717986385]}}, {"type": "Feature", "properties": {"norad_id": 40536, "name": "KOMPSAT-3A", "group": "resource", "lat": 58.16556163787076, "lon": -46.66024820589702, "alt_km": 426.4946666470032, "timestamp": "2025-12-17T07:00:46.548798+00:00", "meta": {"OBJECT_NAME": "KOMPSAT-3A", "OBJECT_ID": "2015-014A", "EPOCH": "2025-12-16T22:58:54.302880", "MEAN_MOTION": 15.44099839, "ECCENTRICITY": 0.00052145, "INCLINATION": 97.6784, "RA_OF_ASC_NODE": 325.5375, "ARG_OF_PERICENTER": 117.4375, "MEAN_ANOMALY": 242.7403, "EPHEMERIS_TYPE": 0, "CLASSIFICATION_TYPE": "U", "NORAD_CAT_ID": 40536, "ELEMENT_SET_NO": 999, "REV_AT_EPOCH": 59360, "BSTAR": 0.00035553558, "MEAN_MOTION_DOT": 0.00016185, "MEAN_MOTION_DDOT": 0}, "tle": {"line1": "1 40536U 15014A   25350.95757295  .00016185  00000+0  35554-3 0  9998", "line2": "2 40536  97.6784 325.5375 0005214 117.4375 242.7403 15.44099839593608"}}, "geometry": {"type": "Point", "coordinates": [-46.66024820589702, 58.16556163787076]}}, {"type": "Feature", "properties": {"norad_id": 40697, "name": "SENTINEL-2A", "group": "resource", "lat": -3.3058194658347833, "lon": -116.73938644257512, "alt_km": 792.4487970402024, "timestamp": "2025-12-17T07:00:46.548809+00:00", "meta": {"OBJECT_NAME": "SENTINEL-2A", "OBJECT_ID": "2015-028A", "EPOCH": "2025-12-16T23:26:45.951936", "MEAN_MOTION": 14.30814712, "ECCENTRICITY": 0.00010532, "INCLINATION": 98.569, "RA_OF_ASC_NODE": 63.4489, "ARG_OF_PERICENTER": 87.6631, "MEAN_ANOMALY": 272.4672, "EPHEMERIS_TYPE": 0, "CLASSIFICATION_TYPE": "U", "NORAD_CAT_ID": 40697, "ELEMENT_SET_NO": 999, "REV_AT_EPOCH": 54767, "BSTAR": 4.8671132e-05, "MEAN_MOTION_DOT": 8.4e-07, "MEAN_MOTION_DDOT": 0}, "tle": {"line1": "1 40697U 15028A   25350.97692074  .00000084  00000+0  48671-4 0  9992", "line2": "2 40697  98.5690  63.4489 0001053  87.6631 272.4672 14.30814712547679"}}, "geometry": {"type": "Point", "coordinates": [-116.73938644257512, -3.3058194658347833]}}]}